UBAKUSAT                
1 43467U 98067NQ  19296.94805943  .00014462  00000-0  14584-3 0  9995
2 43467  51.6366  54.4251 0001636 203.3185 156.7736 15.65645679 82797
BATSU-CS1 (IRAZU)       
1 43468U 98067NR  19296.71639509  .00041758  00000-0  25665-3 0  9994
2 43468  51.6372  40.7781 0002233 326.8387  33.2473 15.76797380182933
CUBERRT                 
1 43546U 98067NU  19296.81905977  .00008672  00000-0  84519-4 0  9999
2 43546  51.6374  54.3139 0003641 259.2797 100.7789 15.67147962 72919
TEMPEST-D               
1 43547U 98067NV  19296.81511052  .00004221  00000-0  59171-4 0  9999
2 43547  51.6383  68.5624 0005065 237.3929 122.6575 15.59198835 72408
RAINCUBE                
1 43548U 98067NW  19296.73378238  .00012539  00000-0  13408-3 0  9991
2 43548  51.6360  61.2276 0004997 257.4974 102.5462 15.64297235 72944
HALOSAT                 
1 43549U 98067NX  19296.80872443  .00012798  00000-0  13755-3 0  9999
2 43549  51.6373  61.0034 0004724 260.4643  99.5818 15.64144156 72510
ENDUROSAT ONE           
1 43551U 98067NZ  19296.93542742  .00018069  00000-0  17472-3 0  9999
2 43551  51.6365  56.5910 0005323 273.1927  86.8459 15.66492758 72996
EQUISAT                 
1 43552U 98067PA  19296.78379999  .00013096  00000-0  13854-3 0  9990
2 43552  51.6381  60.1219 0005601 267.8447  92.1907 15.64520417 72893
AEROCUBE 12A            
1 43556U 18046C   19296.85456176  .00001786  00000-0  74946-4 0  9997
2 43556  51.6414 166.5385 0008631 161.0724 199.0578 15.29028984 71015
AEROCUBE 12B            
1 43557U 18046D   19297.07624402  .00000340  00000-0  24571-4 0  9996
2 43557  51.6416 165.7633 0008601 160.9944 199.1359 15.28859775 70997
UITMSAT-1               
1 43589U 98067PD  19296.76585243  .00014929  00000-0  15415-3 0  9990
2 43589  51.6352  60.6642 0005070 276.7599  83.2819 15.65007446 68625
MAYA-1                  
1 43590U 98067PE  19296.56798902  .00014796  00000-0  15277-3 0  9996
2 43590  51.6376  61.6009 0005363 276.1440  83.8944 15.65015652 68527
BHUTAN-1                
1 43591U 98067PF  19296.61772056  .00015090  00000-0  15530-3 0  9995
2 43591  51.6366  61.2161 0005275 276.5679  83.4716 15.65080407 68536
SIRIUSSAT-1             
1 43595U 98067PG  19296.93229747  .00014083  00000-0  15122-3 0  9996
2 43595  51.6353  61.7841 0003067 237.7274 122.3424 15.64071134 67739
SIRIUSSAT-2             
1 43596U 98067PH  19297.16765732  .00014036  00000-0  15172-3 0  9995
2 43596  51.6365  61.1554 0003532 237.8294 122.2359 15.63903491 67766
TANUSHA-3               
1 43597U 98067PJ  19297.39147603  .00018734  00000-0  18136-3 0  9994
2 43597  51.6348  56.5614 0003299 261.7051  98.3571 15.66442107 67843
SURFSAT                 
1 43614U 18070B   19296.88546461  .00002852  00000-0  76165-4 0  9999
2 43614  93.0354  56.2120 0016273 165.8282 194.3432 15.38040557 61956
CP7 (DAVE)              
1 43615U 18070C   19297.09378828  .00002773  00000-0  74303-4 0  9998
2 43615  93.0359  56.2973 0016483 164.6717 195.5039 15.37943463 61987
ELFIN-B                 
1 43616U 18070D   19296.84765948  .00003836  00000-0  99938-4 0  9996
2 43616  93.0316  56.1013 0017053 169.0493 191.1135 15.38772772 61960
ELFIN-A                 
1 43617U 18070E   19296.83696396  .00004047  00000-0  10516-3 0  9995
2 43617  93.0371  56.4117 0016346 165.7719 194.3998 15.38859684 61968
CUBEBEL-1 (BSUSAT-1)    
1 43666U 18083E   19297.40051287  .00000988  00000-0  52141-4 0  9992
2 43666  97.5127 320.9700 0016702 103.3216   4.7511 15.17779694 54655
DEBRISSAT-2             
1 43680U 98067PR  19296.89208903  .00028337  00000-0  25067-3 0  9993
2 43680  51.6352  57.7725 0003567 281.0287  79.0308 15.68397383 76516
CICERO 10               
1 43690U 18088A   19297.30062480  .00001053  00000-0  47115-4 0  9999
2 43690  85.0400 234.4838 0017402  98.2231 262.0984 15.19827778 52713
IRVINE01                
1 43693U 18088D   19297.06893635  .00002214  00000-0  95245-4 0  9996
2 43693  85.0371 233.9679 0020840  84.7046 275.6573 15.21812918 52733
PROXIMA I               
1 43694U 18088E   19296.83922645  .00001013  00000-0  42866-4 0  9992
2 43694  85.0344 233.9150 0021804  78.3109 282.0577 15.21556648 52706
PROXIMA II              
1 43696U 18088G   19297.10103707  .00001029  00000-0  43573-4 0  9998
2 43696  85.0345 233.7437 0021831  77.4126 282.9555 15.21561529 52747
FACSAT-1                
1 43721U 18096C   19297.17405036  .00001305  00000-0  52584-4 0  9992
2 43721  97.4482   6.7704 0016501 237.4165 122.5480 15.26576031 50180
CENTAURI-2              
1 43722U 18096D   19296.74062688  .00001831  00000-0  71985-4 0  9997
2 43722  97.4487   6.4359 0016630 239.6690 120.2905 15.26870972 50110
INNOSAT-2               
1 43738U 18096V   19297.40498147  .00002528  00000-0  91476-4 0  9992
2 43738  97.4496   8.1564 0022701 248.3191 111.5632 15.29143908 50297
SIRION PATHFINDER-2     
1 43759U 18099B   19297.27673699  .00000564  00000-0  56576-4 0  9990
2 43759  97.7338   7.6226 0012895 252.7641 107.2169 14.95175766 48483
CORVUS-BC 4             
1 43767U 18099K   19296.86169787  .00000153  00000-0  19368-4 0  9993
2 43767  97.7323   6.8772 0010411 258.0908 101.9145 14.94617159 48414
MOVE-II                 
1 43780U 18099Y   19296.76328886  .00000530  00000-0  53525-4 0  9996
2 43780  97.7337   7.0185 0012068 267.4300  92.5539 14.95161481 48397
SPACEBEE-7              
1 43816U 18099BL  19297.15352815  .00000798  00000-0  77226-4 0  9999
2 43816  97.7352   7.6414 0012059 248.6615 111.3319 14.95495217 48028
SPACEBEE-5              
1 43817U 18099BM  19296.78146855  .00000456  00000-0  46016-4 0  9997
2 43817  97.7378   7.4235 0012109 250.5028 109.4886 14.95831604 47976
SPACEBEE-6              
1 43818U 18099BN  19296.87335994  .00000847  00000-0  81405-4 0  9997
2 43818  97.7357   7.4124 0012154 249.2002 110.7917 14.95599949 48130
SHIELDS 1               
1 43850U 18104B   19296.61171085  .00000041  00000-0  00000-0 0  9995
2 43850  85.0277 332.5739 0012913 219.2010 140.8324 15.21172623 47311
STF-1                   
1 43852U 18104D   19296.58729524  .00000041  00000-0  00000-0 0  9990
2 43852  85.0317 332.9431 0012593 230.5368 129.4773 15.20792355 47294
ZACUBE-2                
1 43907U 18111AH  19297.36276366  .00000602  00000-0  27373-4 0  9996
2 43907  97.2789 199.0180 0019935 260.3777  99.5208 15.24308112 45890
LUME 1                  
1 43908U 18111AJ  19297.27459472  .00001125  00000-0  48338-4 0  9993
2 43908  97.2788 198.9816 0019817 260.8443  99.0553 15.24546553 45888
AOBA VELOX-IV           
1 43940U 19003J   19297.38627637  .00001594  00000-0  67864-4 0  9997
2 43940  97.2624 351.4420 0024112 345.4060  73.3444 15.24164518 42539
CATSAT-2                
1 44029U 98067PV  19296.66357760  .00008614  00000-0  11661-3 0  9993
2 44029  51.6387  75.0734 0004445 261.3258  98.7231 15.58591843 41364
DELPHINI                
1 44030U 98067PW  19296.83604377  .00010542  00000-0  13967-3 0  9997
2 44030  51.6364  73.9461 0004383 261.6160  98.4335 15.58887221 41361
UNITE                   
1 44031U 98067PX  19296.90880369  .00006782  00000-0  98203-4 0  9991
2 44031  51.6386  75.1957 0002956 257.0276 103.0386 15.57171868 41351
TECHEDSAT 8             
1 44032U 98067PY  19296.90447600  .00033252  00000-0  32488-3 0  9993
2 44032  51.6362  67.6490 0003871 274.6735  85.3819 15.65843490 41434
CATSAT-1                
1 44033U 98067PZ  19296.59927529  .00008697  00000-0  11765-3 0  9992
2 44033  51.6387  75.3957 0004178 261.5996  98.4523 15.58596860 41267
RAAVANA-1               
1 44329U 98067QE  19296.70359558  .00006900  00000-0  11372-3 0  9993
2 44329  51.6403  82.0879 0007087 192.9922 167.0887 15.53534123 19990
UGUISU                  
1 44330U 98067QF  19296.70685564  .00006894  00000-0  11381-3 0  9996
2 44330  51.6400  82.1088 0007081 191.7151 168.3675 15.53490094 19972
NEPALISAT-1             
1 44331U 98067QG  19296.63640325  .00006924  00000-0  11396-3 0  9995
2 44331  51.6402  82.3896 0007100 194.1538 165.9255 15.53566887 19973
SPOOQY-1                
1 44332U 98067QH  19296.63371478  .00006767  00000-0  11149-3 0  9997
2 44332  51.6401  82.3697 0005877 195.4952 164.5859 15.53583860 19936
SPACEBEE-9              
1 44370U 19037F   19297.20035858  .00005404  00000-0  13982-3 0  9996
2 44370  45.0163 358.8821 0015262 235.1339 124.8081 15.40153196 17980
SPACEBEE-8              
1 44371U 19037G   19296.64470357  .00011258  00000-0  27193-3 0  9994
2 44371  45.0159   1.4963 0014897 234.7658 125.1830 15.41247047 17892
MOVE-IIB                
1 44398U 19038N   19297.10994791  .00001241  00000-0  76105-4 0  9998
2 44398  97.5037 256.9484 0024222 222.5966 137.3386 15.11781650 16714
SONATE                  
1 44400U 19038Q   19296.84474482  .00000572  00000-0  37175-4 0  9992
2 44400  97.5052 256.7000 0024186 221.5029 138.4366 15.11713899 16670
LUCKY-7                 
1 44406U 19038W   19296.83091346  .00000613  00000-0  39403-4 0  9993
2 44406  97.5049 256.7169 0023674 221.5009 138.4425 15.11915001 16661
BEESAT 9                
1 44412U 19038AC  19296.83411691  .00000851  00000-0  53249-4 0  9997
2 44412  97.5047 256.7097 0021656 227.4596 132.4806 15.11893648 16366
JAISAT-1                
1 44419U 19038F   19296.86424207  .00000733  00000-0  45841-4 0  9992
2 44419  97.5050 256.8242 0020503 227.0255 132.9257 15.12383162 16684
SWIATOWID               
1 44426U 98067QL  19297.44982331  .00013183  00000-0  20950-3 0  9997
2 44426  51.6429  78.7400 0005157 157.3776 242.9530 15.53660274 17584
KRAKSAT                 
1 44427U 98067QM  19296.82722424  .00005833  00000-0  10033-3 0  9998
2 44427  51.6413  82.1729 0004242 149.3305 210.7933 15.52670269 17522
VCC A                   
1 44428U 98067QN  19296.87168957  .00007478  00000-0  12463-3 0  9995
2 44428  51.6411  81.7213 0003503 167.5465 192.5613 15.53086937 17539
